CCSDS_OMM_VERS = 2.0
CREATION_DATE  = 
ORIGINATOR     = 

OBJECT_NAME    = CYGNUS NG-23
OBJECT_ID      = 2025-208A
CENTER_NAME    = EARTH
REF_FRAME      = TEME
TIME_SYSTEM    = UTC
MEAN_ELEMENT_THEORY = SGP/SGP4

EPOCH          = 2026-01-02T13:33:42.410016
MEAN_MOTION    = 15.49039326
ECCENTRICITY   = .00075301
INCLINATION    = 51.6329
RA_OF_ASC_NODE = 39.3546
ARG_OF_PERICENTER = 331.9903
MEAN_ANOMALY   = 28.0679

EPHEMERIS_TYPE = 0
CLASSIFICATION_TYPE = U
NORAD_CAT_ID   = 65616
ELEMENT_SET_NO = 999
REV_AT_EPOCH   = 22
BSTAR          = .29290778E-3
MEAN_MOTION_DOT = .15753E-3
MEAN_MOTION_DDOT = 0

CCSDS_OMM_VERS = 2.0
CREATION_DATE  = 
ORIGINATOR     = 

OBJECT_NAME    = DRAGONFLY
OBJECT_ID      = 1998-067XH
CENTER_NAME    = EARTH
REF_FRAME      = TEME
TIME_SYSTEM    = UTC
MEAN_ELEMENT_THEORY = SGP/SGP4

EPOCH          = 2026-01-02T19:01:05.076768
MEAN_MOTION    = 15.81085625
ECCENTRICITY   = .0008739
INCLINATION    = 51.6235
RA_OF_ASC_NODE = 27.3292
ARG_OF_PERICENTER = 38.7061
MEAN_ANOMALY   = 321.4566

EPHEMERIS_TYPE = 0
CLASSIFICATION_TYPE = U
NORAD_CAT_ID   = 65729
ELEMENT_SET_NO = 999
REV_AT_EPOCH   = 1648
BSTAR          = .16338E-2
MEAN_MOTION_DOT = .339275E-2
MEAN_MOTION_DDOT = 0

CCSDS_OMM_VERS = 2.0
CREATION_DATE  = 
ORIGINATOR     = 

OBJECT_NAME    = 1998-067XK
OBJECT_ID      = 1998-067XK
CENTER_NAME    = EARTH
REF_FRAME      = TEME
TIME_SYSTEM    = UTC
MEAN_ELEMENT_THEORY = SGP/SGP4

EPOCH          = 2026-01-02T07:44:07.639296
MEAN_MOTION    = 15.70407010
ECCENTRICITY   = .000527
INCLINATION    = 51.6290
RA_OF_ASC_NODE = 32.4842
ARG_OF_PERICENTER = 11.7490
MEAN_ANOMALY   = 348.3630

EPHEMERIS_TYPE = 0
CLASSIFICATION_TYPE = U
NORAD_CAT_ID   = 65731
ELEMENT_SET_NO = 999
REV_AT_EPOCH   = 1637
BSTAR          = .12759E-2
MEAN_MOTION_DOT = .162016E-2
MEAN_MOTION_DDOT = 0

CCSDS_OMM_VERS = 2.0
CREATION_DATE  = 
ORIGINATOR     = 

OBJECT_NAME    = RSP-03
OBJECT_ID      = 1998-067XL
CENTER_NAME    = EARTH
REF_FRAME      = TEME
TIME_SYSTEM    = UTC
MEAN_ELEMENT_THEORY = SGP/SGP4

EPOCH          = 2026-01-02T08:14:34.473120
MEAN_MOTION    = 15.75019106
ECCENTRICITY   = .00064124
INCLINATION    = 51.6260
RA_OF_ASC_NODE = 31.1044
ARG_OF_PERICENTER = 18.4939
MEAN_ANOMALY   = 341.6292

EPHEMERIS_TYPE = 0
CLASSIFICATION_TYPE = U
NORAD_CAT_ID   = 65732
ELEMENT_SET_NO = 999
REV_AT_EPOCH   = 1640
BSTAR          = .15221302E-2
MEAN_MOTION_DOT = .237676E-2
MEAN_MOTION_DDOT = 0

CCSDS_OMM_VERS = 2.0
CREATION_DATE  = 
ORIGINATOR     = 

OBJECT_NAME    = GHS-01
OBJECT_ID      = 1998-067XM
CENTER_NAME    = EARTH
REF_FRAME      = TEME
TIME_SYSTEM    = UTC
MEAN_ELEMENT_THEORY = SGP/SGP4

EPOCH          = 2026-01-02T10:28:56.152992
MEAN_MOTION    = 15.87073258
ECCENTRICITY   = .00096481
INCLINATION    = 51.6261
RA_OF_ASC_NODE = 27.9593
ARG_OF_PERICENTER = 41.4531
MEAN_ANOMALY   = 318.7204

EPHEMERIS_TYPE = 0
CLASSIFICATION_TYPE = U
NORAD_CAT_ID   = 65733
ELEMENT_SET_NO = 999
REV_AT_EPOCH   = 1645
BSTAR          = .18981522E-2
MEAN_MOTION_DOT = .536437E-2
MEAN_MOTION_DDOT = 0

CCSDS_OMM_VERS = 2.0
CREATION_DATE  = 
ORIGINATOR     = 

OBJECT_NAME    = YOTSUBA-KULOVER
OBJECT_ID      = 1998-067XN
CENTER_NAME    = EARTH
REF_FRAME      = TEME
TIME_SYSTEM    = UTC
MEAN_ELEMENT_THEORY = SGP/SGP4

EPOCH          = 2026-01-02T10:56:44.566368
MEAN_MOTION    = 15.62687382
ECCENTRICITY   = .00034708
INCLINATION    = 51.6292
RA_OF_ASC_NODE = 35.6311
ARG_OF_PERICENTER = 42.9636
MEAN_ANOMALY   = 317.1629

EPHEMERIS_TYPE = 0
CLASSIFICATION_TYPE = U
NORAD_CAT_ID   = 65941
ELEMENT_SET_NO = 999
REV_AT_EPOCH   = 1309
BSTAR          = .11729432E-2
MEAN_MOTION_DOT = .10819E-2
MEAN_MOTION_DDOT = 0

CCSDS_OMM_VERS = 2.0
CREATION_DATE  = 
ORIGINATOR     = 

OBJECT_NAME    = BOTAN
OBJECT_ID      = 1998-067XP
CENTER_NAME    = EARTH
REF_FRAME      = TEME
TIME_SYSTEM    = UTC
MEAN_ELEMENT_THEORY = SGP/SGP4

EPOCH          = 2026-01-02T08:11:42.640800
MEAN_MOTION    = 15.68011039
ECCENTRICITY   = .00043428
INCLINATION    = 51.6277
RA_OF_ASC_NODE = 34.8604
ARG_OF_PERICENTER = 30.4059
MEAN_ANOMALY   = 329.7188

EPHEMERIS_TYPE = 0
CLASSIFICATION_TYPE = U
NORAD_CAT_ID   = 65942
ELEMENT_SET_NO = 999
REV_AT_EPOCH   = 1309
BSTAR          = .15946086E-2
MEAN_MOTION_DOT = .183966E-2
MEAN_MOTION_DDOT = 0

CCSDS_OMM_VERS = 2.0
CREATION_DATE  = 
ORIGINATOR     = 

OBJECT_NAME    = E-KAGAKU-1
OBJECT_ID      = 1998-067XQ
CENTER_NAME    = EARTH
REF_FRAME      = TEME
TIME_SYSTEM    = UTC
MEAN_ELEMENT_THEORY = SGP/SGP4

EPOCH          = 2026-01-02T10:56:39.049728
MEAN_MOTION    = 15.62718043
ECCENTRICITY   = .00020784
INCLINATION    = 51.6301
RA_OF_ASC_NODE = 35.6363
ARG_OF_PERICENTER = 33.1595
MEAN_ANOMALY   = 326.9529

EPHEMERIS_TYPE = 0
CLASSIFICATION_TYPE = U
NORAD_CAT_ID   = 65943
ELEMENT_SET_NO = 999
REV_AT_EPOCH   = 1309
BSTAR          = .11508222E-2
MEAN_MOTION_DOT = .106227E-2
MEAN_MOTION_DDOT = 0

CCSDS_OMM_VERS = 2.0
CREATION_DATE  = 
ORIGINATOR     = 

OBJECT_NAME    = HRC MONOBLOCK CAMERA
OBJECT_ID      = 1998-067XR
CENTER_NAME    = EARTH
REF_FRAME      = TEME
TIME_SYSTEM    = UTC
MEAN_ELEMENT_THEORY = SGP/SGP4

EPOCH          = 2026-01-02T19:06:31.845024
MEAN_MOTION    = 15.55762297
ECCENTRICITY   = .0001475
INCLINATION    = 51.6309
RA_OF_ASC_NODE = 36.3997
ARG_OF_PERICENTER = 300.4763
MEAN_ANOMALY   = 59.6082

EPHEMERIS_TYPE = 0
CLASSIFICATION_TYPE = U
NORAD_CAT_ID   = 66052
ELEMENT_SET_NO = 999
REV_AT_EPOCH   = 1211
BSTAR          = .67932E-3
MEAN_MOTION_DOT = .47546E-3
MEAN_MOTION_DDOT = 0

CCSDS_OMM_VERS = 2.0
CREATION_DATE  = 
ORIGINATOR     = 

OBJECT_NAME    = HTV-X1
OBJECT_ID      = 2025-241A
CENTER_NAME    = EARTH
REF_FRAME      = TEME
TIME_SYSTEM    = UTC
MEAN_ELEMENT_THEORY = SGP/SGP4

EPOCH          = 2026-01-02T13:33:42.410016
MEAN_MOTION    = 15.49039326
ECCENTRICITY   = .00075301
INCLINATION    = 51.6329
RA_OF_ASC_NODE = 39.3546
ARG_OF_PERICENTER = 331.9903
MEAN_ANOMALY   = 28.0679

EPHEMERIS_TYPE = 0
CLASSIFICATION_TYPE = U
NORAD_CAT_ID   = 66174
ELEMENT_SET_NO = 999
REV_AT_EPOCH   = 51
BSTAR          = .29290778E-3
MEAN_MOTION_DOT = .15753E-3
MEAN_MOTION_DDOT = 0

CCSDS_OMM_VERS = 2.0
CREATION_DATE  = 
ORIGINATOR     = 

OBJECT_NAME    = SZ-21 MODULE
OBJECT_ID      = 2025-246C
CENTER_NAME    = EARTH
REF_FRAME      = TEME
TIME_SYSTEM    = UTC
MEAN_ELEMENT_THEORY = SGP/SGP4

EPOCH          = 2026-01-02T16:30:50.579424
MEAN_MOTION    = 15.63766644
ECCENTRICITY   = .0002389
INCLINATION    = 41.4757
RA_OF_ASC_NODE = 248.1478
ARG_OF_PERICENTER = 22.7374
MEAN_ANOMALY   = 337.3571

EPHEMERIS_TYPE = 0
CLASSIFICATION_TYPE = U
NORAD_CAT_ID   = 66515
ELEMENT_SET_NO = 999
REV_AT_EPOCH   = 772
BSTAR          = .41839E-3
MEAN_MOTION_DOT = .40143E-3
MEAN_MOTION_DDOT = 0

CCSDS_OMM_VERS = 2.0
CREATION_DATE  = 
ORIGINATOR     = 

OBJECT_NAME    = SHENZHOU-22
OBJECT_ID      = 2025-272A
CENTER_NAME    = EARTH
REF_FRAME      = TEME
TIME_SYSTEM    = UTC
MEAN_ELEMENT_THEORY = SGP/SGP4

EPOCH          = 2026-01-02T14:09:50.003712
MEAN_MOTION    = 15.60084598
ECCENTRICITY   = .00102952
INCLINATION    = 41.4660
RA_OF_ASC_NODE = 250.0449
ARG_OF_PERICENTER = 205.4791
MEAN_ANOMALY   = 154.5541

EPHEMERIS_TYPE = 0
CLASSIFICATION_TYPE = U
NORAD_CAT_ID   = 66645
ELEMENT_SET_NO = 999
REV_AT_EPOCH   = 26714
BSTAR          = .37412209E-3
MEAN_MOTION_DOT = .31075E-3
MEAN_MOTION_DDOT = 0

