CYGNUS NG-23            
1 65616U 25208A   26002.56507419  .00015753  00000+0  29291-3 0  9994
2 65616  51.6329  39.3546 0007530 331.9903  28.0679 15.49039326   223
DRAGONFLY               
1 65729U 98067XH  26002.79241987  .00339275  00000+0  16338-2 0  9997
2 65729  51.6235  27.3292 0008739  38.7061 321.4566 15.81085625 16487
1998-067XK              
1 65731U 98067XK  26002.32231064  .00162016  00000+0  12759-2 0  9994
2 65731  51.6290  32.4842 0005270  11.7490 348.3630 15.70407010 16375
RSP-03                  
1 65732U 98067XL  26002.34345455  .00237676  00000+0  15221-2 0  9999
2 65732  51.6260  31.1044 0006412  18.4939 341.6292 15.75019106 16408
GHS-01                  
1 65733U 98067XM  26002.43676103  .00536437  00000+0  18982-2 0  9991
2 65733  51.6261  27.9593 0009648  41.4531 318.7204 15.87073258 16454
YOTSUBA-KULOVER         
1 65941U 98067XN  26002.45607137  .00108190  00000+0  11729-2 0  9998
2 65941  51.6292  35.6311 0003470  42.9636 317.1629 15.62687382 13095
BOTAN                   
1 65942U 98067XP  26002.34146575  .00183966  00000+0  15946-2 0  9990
2 65942  51.6277  34.8604 0004342  30.4059 329.7188 15.68011039 13090
E-KAGAKU-1              
1 65943U 98067XQ  26002.45600752  .00106227  00000+0  11508-2 0  9990
2 65943  51.6301  35.6363 0002078  33.1595 326.9529 15.62718043 13090
HRC MONOBLOCK CAMERA    
1 66052U 98067XR  26002.79620191  .00047546  00000+0  67932-3 0  9999
2 66052  51.6309  36.3997 0001475 300.4763  59.6082 15.55762297 12116
HTV-X1                  
1 66174U 25241A   26002.56507419  .00015753  00000+0  29291-3 0  9991
2 66174  51.6329  39.3546 0007530 331.9903  28.0679 15.49039326   515
SZ-21 MODULE            
1 66515U 25246C   26002.68808541  .00040143  00000+0  41839-3 0  9991
2 66515  41.4757 248.1478 0002389  22.7374 337.3571 15.63766644  7727
SHENZHOU-22             
1 66645U 25272A   26002.59016208  .00031075  00000+0  37412-3 0  9991
2 66645  41.4660 250.0449 0010295 205.4791 154.5541 15.60084598267140
